[{"OBJECT_NAME":"STARLINK-3871","OBJECT_ID":"2022-049AX","EPOCH":"2026-03-09T07:33:32.016960","MEAN_MOTION":15.08834396,"ECCENTRICITY":0.00013976,"INCLINATION":53.2181,"RA_OF_ASC_NODE":45.8029,"ARG_OF_PERICENTER":85.6571,"MEAN_ANOMALY":274.4581,"EPHEMERIS_TYPE":0,"CLASSIFICATION_TYPE":"U","NORAD_CAT_ID":52496,"ELEMENT_SET_NO":999,"REV_AT_EPOCH":21240,"BSTAR":-7.360685e-6,"MEAN_MOTION_DOT":-4.05e-6,"MEAN_MOTION_DDOT":0},{"OBJECT_NAME":"CZ-6A R\/B","OBJECT_ID":"2022-031C","EPOCH":"2026-03-09T19:50:55.360896","MEAN_MOTION":15.07476837,"ECCENTRICITY":0.00174842,"INCLINATION":97.8104,"RA_OF_ASC_NODE":273.2347,"ARG_OF_PERICENTER":181.6412,"MEAN_ANOMALY":178.4761,"EPHEMERIS_TYPE":0,"CLASSIFICATION_TYPE":"U","NORAD_CAT_ID":52152,"ELEMENT_SET_NO":999,"REV_AT_EPOCH":21633,"BSTAR":0.00020233161,"MEAN_MOTION_DOT":3.012e-5,"MEAN_MOTION_DDOT":0}]
